NORAD_CAT_ID,OBJECT_NAME,OBJECT_TYPE,EPOCH,MEAN_MOTION,ECCENTRICITY,INCLINATION,RA_OF_ASC_NODE,ARG_OF_PERICENTER,MEAN_ANOMALY,BSTAR,MEAN_MOTION_DOT,MEAN_MOTION_DDOT,TLE_LINE0,TLE_LINE1,TLE_LINE2,SEMIMAJOR_AXIS,PERIOD,APOGEE,PERIGEE,DECAYED
54199.0,STARLINK-5244,PAYLOAD,2023-11-24 18:30:11,15.08837152,0.000154,53.2171,146.6313,83.409,276.7077,5.2846e-05,5.53e-06,0.0,0 STARLINK-5244,1 54199U 22141AU  23328.77096864  .00000553  00000-0  52846-4 0  9995,2 54199  53.2171 146.6313 0001540  83.4090 276.7077 15.08837152 59805,6917.889,95.438,540.819,538.689,0.0
54199.0,STARLINK-5244,PAYLOAD,2023-11-25 21:31:45,15.08843302,0.000156,53.2147,141.5736,75.6875,284.429,0.00038587,5.859e-05,0.0,0 STARLINK-5244,1 54199U 22141AU  23329.89705651  .00005859  00000-0  38587-3 0  9999,2 54199  53.2147 141.5736 0001560  75.6875 284.4290 15.08843302 59972,6917.87,95.437,540.814,538.656,0.0
54199.0,STARLINK-5244,PAYLOAD,2023-11-26 21:22:31,15.08863297,0.0001546,53.215,137.1121,82.2402,277.8766,0.00035203,5.323e-05,0.0,0 STARLINK-5244,1 54199U 22141AU  23330.89063977  .00005323  00000-0  35203-3 0  9997,2 54199  53.2150 137.1121 0001546  82.2402 277.8766 15.08863297 60127,6917.809,95.436,540.744,538.605,0.0
54199.0,STARLINK-5244,PAYLOAD,2023-11-27 10:05:36,15.08849579,0.0001357,53.215,134.7326,84.9755,275.1392,-8.8759e-06,-4.29e-06,0.0,0 STARLINK-5244,1 54199U 22141AU  23331.42056044 -.00000429  00000-0 -88759-5 0  9994,2 54199  53.2150 134.7326 0001357  84.9755 275.1392 15.08849579 60434,6917.851,95.437,540.655,538.777,0.0
54199.0,STARLINK-5244,PAYLOAD,2023-11-27 14:51:45,15.08853906,0.0001625,53.2156,133.8413,91.2144,268.9034,4.5125e-05,4.3e-06,0.0,0 STARLINK-5244,1 54199U 22141AU  23331.61927539  .00000430  00000-0  45125-4 0  9990,2 54199  53.2156 133.8413 0001625  91.2144 268.9034 15.08853906 60238,6917.838,95.437,540.827,538.579,0.0
54199.0,STARLINK-5244,PAYLOAD,2023-11-27 18:02:32,15.08838942,0.0001748,53.2162,133.2474,82.838,277.2811,0.00058568,9.045e-05,0.0,0 STARLINK-5244,1 54199U 22141AU  23331.75176301  .00009045  00000-0  58568-3 0  9993,2 54199  53.2162 133.2474 0001748  82.8380 277.2811 15.08838942 60251,6917.884,95.438,540.958,538.539,0.0
54199.0,STARLINK-5244,PAYLOAD,2023-11-28 14:42:32,15.0884683,0.0001566,53.2164,129.3792,102.5126,257.6041,-9.6821e-05,-1.829e-05,0.0,0 STARLINK-5244,1 54199U 22141AU  23332.61287162 -.00001829  00000-0 -96821-4 0  9996,2 54199  53.2164 129.3792 0001566 102.5126 257.6041 15.08846830 60384,6917.86,95.437,540.808,538.641,0.0
54199.0,STARLINK-5244,PAYLOAD,2023-11-28 19:28:40,15.08864403,0.0001266,53.2159,128.4855,99.1527,260.9608,-0.00048844,-8.058e-05,0.0,0 STARLINK-5244,1 54199U 22141AU  23332.81158248 -.00008058  00000-0 -48844-3 0  9992,2 54199  53.2159 128.4855 0001266  99.1527 260.9608 15.08864403 60642,6917.806,95.436,540.547,538.795,0.0
54199.0,STARLINK-5244,PAYLOAD,2023-11-29 09:47:09,15.08843082,0.0001412,53.2165,125.8147,78.987,281.1281,6.8921e-05,8.09e-06,0.0,0 STARLINK-5244,1 54199U 22141AU  23333.40775394  .00000809  00000-0  68921-4 0  9998,2 54199  53.2165 125.8147 0001412  78.9870 281.1281 15.08843082 60735,6917.871,95.437,540.713,538.759,0.0
54199.0,STARLINK-5244,PAYLOAD,2023-11-29 14:33:19,15.08844063,0.0001381,53.2164,124.9231,79.605,280.5098,0.00010225,1.34e-05,0.0,0 STARLINK-5244,1 54199U 22141AU  23333.60647372  .00001340  00000-0  10225-3 0  9998,2 54199  53.2164 124.9231 0001381  79.6050 280.5098 15.08844063 60538,6917.868,95.437,540.688,538.778,0.0
54199.0,STARLINK-5244,PAYLOAD,2023-11-30 17:34:53,15.08829216,0.0001468,53.2176,119.8697,60.3366,299.7772,0.00045499,6.958e-05,0.0,0 STARLINK-5244,1 54199U 22141AU  23334.73256506  .00006958  00000-0  45499-3 0  9999,2 54199  53.2176 119.8697 0001468  60.3366 299.7772 15.08829216 60931,6917.913,95.438,540.794,538.763,0.0
54199.0,STARLINK-5244,PAYLOAD,2023-12-01 14:14:54,15.08839674,0.0001851,53.2182,116.0045,58.7835,301.3338,7.4069e-05,8.91e-06,0.0,0 STARLINK-5244,1 54199U 22141AU  23335.59368159  .00000891  00000-0  74069-4 0  9998,2 54199  53.2182 116.0045 0001851  58.7835 301.3338 15.08839674 60838,6917.881,95.438,541.027,538.466,0.0
54199.0,STARLINK-5244,PAYLOAD,2023-12-02 12:30:17,15.08851888,0.0001819,53.218,111.8424,120.3846,239.7326,0.00022669,3.323e-05,0.0,0 STARLINK-5244,1 54199U 22141AU  23336.52103155  .00003323  00000-0  22669-3 0  9996,2 54199  53.2180 111.8424 0001819 120.3846 239.7326 15.08851888 61206,6917.844,95.437,540.967,538.451,0.0
54199.0,STARLINK-5244,PAYLOAD,2023-12-02 14:05:40,15.08848692,0.0001605,53.218,111.5414,102.2977,257.8195,0.00016597,2.355e-05,0.0,0 STARLINK-5244,1 54199U 22141AU  23336.58727300  .00002355  00000-0  16597-3 0  9993,2 54199  53.2180 111.5414 0001605 102.2977 257.8195 15.08848692 60987,6917.854,95.437,540.829,538.609,0.0
54199.0,STARLINK-5244,PAYLOAD,2023-12-02 15:41:03,15.0884933,0.000157,53.2179,111.2436,98.7289,261.3881,0.00017404,2.484e-05,0.0,0 STARLINK-5244,1 54199U 22141AU  23336.65351261  .00002484  00000-0  17404-3 0  9991,2 54199  53.2179 111.2436 0001570  98.7289 261.3881 15.08849330 60995,6917.852,95.437,540.803,538.631,0.0
54199.0,STARLINK-5244,PAYLOAD,2023-12-03 12:21:05,15.08824382,0.000147,53.2172,107.369,115.3229,244.7916,-0.0001503,-2.678e-05,0.0,0 STARLINK-5244,1 54199U 22141AU  23337.51464915 -.00002678  00000-0 -15030-3 0  9998,2 54199  53.2172 107.3690 0001470 115.3229 244.7916 15.08824382 61350,6917.928,95.439,540.81,538.776,0.0
54199.0,STARLINK-5244,PAYLOAD,2023-12-03 13:56:28,15.08822103,0.0001368,53.2169,107.0711,120.1374,239.9754,-0.0001792,-3.137e-05,0.0,0 STARLINK-5244,1 54199U 22141AU  23337.58089054 -.00003137  00000-0 -17920-3 0  9993,2 54199  53.2169 107.0711 0001368 120.1374 239.9754 15.08822103 61139,6917.935,95.439,540.746,538.854,0.0
54199.0,STARLINK-5244,PAYLOAD,2023-12-04 12:11:53,15.08824646,0.0001217,53.2177,102.9169,87.8794,272.2338,-0.00010001,-1.878e-05,0.0,0 STARLINK-5244,1 54199U 22141AU  23338.50825925 -.00001878  00000-0 -10001-3 0  9994,2 54199  53.2177 102.9169 0001217  87.8794 272.2338 15.08824646 61274,6917.927,95.439,540.634,538.95,0.0
54199.0,STARLINK-5244,PAYLOAD,2023-12-05 12:02:40,15.0884838,0.0001104,53.2172,98.4589,70.8135,289.2977,0.0005703,8.802e-05,0.0,0 STARLINK-5244,1 54199U 22141AU  23339.50185373  .00008802  00000-0  57030-3 0  9996,2 54199  53.2172  98.4589 0001104  70.8135 289.2977 15.08848380 61650,6917.855,95.437,540.484,538.956,0.0
54199.0,STARLINK-5244,PAYLOAD,2023-12-05 16:48:48,15.08861822,0.0001197,53.2168,97.563,104.7835,255.329,0.0006853,0.00010642,0.0,0 STARLINK-5244,1 54199U 22141AU  23339.70056564  .00010642  00000-0  68530-3 0  9999,2 54199  53.2168  97.5630 0001197 104.7835 255.3290 15.08861822 61689,6917.814,95.436,540.507,538.851,0.0
54199.0,STARLINK-5244,PAYLOAD,2023-12-06 11:53:26,15.08849535,0.0001256,53.218,93.999,67.3721,292.7403,-5.2564e-05,-1.125e-05,0.0,0 STARLINK-5244,1 54199U 22141AU  23340.49544725 -.00001125  00000-0 -52564-4 0  9997,2 54199  53.2180  93.9990 0001256  67.3721 292.7403 15.08849535 61808,6917.851,95.437,540.585,538.847,0.0
54199.0,STARLINK-5244,PAYLOAD,2023-12-06 13:28:49,15.08848917,0.0001257,53.2178,93.7005,69.6401,290.4726,-5.5274e-05,-1.168e-05,0.0,0 STARLINK-5244,1 54199U 22141AU  23340.56168674 -.00001168  00000-0 -55274-4 0  9998,2 54199  53.2178  93.7005 0001257  69.6401 290.4726 15.08848917 61582,6917.853,95.437,540.588,538.849,0.0
54199.0,STARLINK-5244,PAYLOAD,2023-12-07 11:44:13,15.08842127,0.0001174,53.2174,89.535,83.1948,276.9178,-0.00016587,-2.927e-05,0.0,0 STARLINK-5244,1 54199U 22141AU  23341.48904808 -.00002927  00000-0 -16587-3 0  9994,2 54199  53.2174  89.5350 0001174  83.1948 276.9178 15.08842127 61957,6917.874,95.437,540.551,538.927,0.0
54199.0,STARLINK-5244,PAYLOAD,2023-12-07 13:19:36,15.08842994,0.0001196,53.2172,89.2375,85.5878,274.525,-0.00015094,-2.689e-05,0.0,0 STARLINK-5244,1 54199U 22141AU  23341.55528752 -.00002689  00000-0 -15094-3 0  9999,2 54199  53.2172  89.2375 0001196  85.5878 274.5250 15.08842994 61734,6917.871,95.437,540.564,538.909,0.0
54199.0,STARLINK-5244,PAYLOAD,2023-12-07 16:30:22,15.08851166,0.0001127,53.2176,88.6408,101.2908,258.8211,-0.0002249,-3.866e-05,0.0,0 STARLINK-5244,1 54199U 22141AU  23341.68776198 -.00003866  00000-0 -22490-3 0  9998,2 54199  53.2176  88.6408 0001127 101.2908 258.8211 15.08851166 61982,6917.846,95.437,540.491,538.932,0.0
54199.0,STARLINK-5244,PAYLOAD,2023-12-08 11:35:00,15.0884073,0.000133,53.2181,85.0715,88.9609,271.1536,0.00014286,1.986e-05,0.0,0 STARLINK-5244,1 54199U 22141AU  23342.48264810  .00001986  00000-0  14286-3 0  9993,2 54199  53.2181  85.0715 0001330  88.9609 271.1536 15.08840730 62103,6917.878,95.438,540.663,538.823,0.0
54199.0,STARLINK-5244,PAYLOAD,2023-12-08 13:10:23,15.08842907,0.0001347,53.2189,84.7748,88.7084,271.4063,0.00016122,2.279e-05,0.0,0 STARLINK-5244,1 54199U 22141AU  23342.54888668  .00002279  00000-0  16122-3 0  9990,2 54199  53.2189  84.7748 0001347  88.7084 271.4063 15.08842907 61886,6917.872,95.437,540.668,538.805,0.0
54199.0,STARLINK-5244,PAYLOAD,2023-12-09 11:25:48,15.0884031,0.0001327,53.2177,80.6154,83.7625,276.3518,6.2756e-05,7.11e-06,0.0,0 STARLINK-5244,1 54199U 22141AU  23343.47625153  .00000711  00000-0  62756-4 0  9995,2 54199  53.2177  80.6154 0001327  83.7625 276.3518 15.08840310 62250,6917.879,95.438,540.662,538.826,0.0
54199.0,STARLINK-5244,PAYLOAD,2023-12-09 13:01:11,15.08840507,0.0001335,53.2178,80.3181,82.6509,277.4635,5.9475e-05,6.59e-06,0.0,0 STARLINK-5244,1 54199U 22141AU  23343.54249120  .00000659  00000-0  59475-4 0  9994,2 54199  53.2178  80.3181 0001335  82.6509 277.4635 15.08840507 62032,6917.879,95.438,540.667,538.82,0.0
54199.0,STARLINK-5244,PAYLOAD,2023-12-10 12:51:58,15.08844228,0.0001272,53.2185,75.8579,88.5227,271.5911,6.552e-09,-2.88e-06,0.0,0 STARLINK-5244,1 54199U 22141AU  23344.53608984 -.00000288  00000-0  65520-8 0  9992,2 54199  53.2185  75.8579 0001272  88.5227 271.5911 15.08844228 62184,6917.867,95.437,540.612,538.853,0.0
